FENGYUN 1C DEB          
1 31663U 99025CBV 17345.74278656  .00000272  00000-0  44828-4 0  9990
2 31663  98.8970 321.6720 0221133 306.3632  51.7342 14.65705075563857
